{"fetched_at": "2026-06-22T06:39:24.999013+00:00", "line1": "1 42907U 17046A   26171.25829686  .00000132  00000+0  00000+0 0  9997", "line2": "2 42907   0.0458  95.4065 0000868  28.4578 282.5989  1.00272047 32423"}
